{
  "norad_id": 65147,
  "name": "KUIPER-00109",
  "history": [
    {
      "epoch": "2026-03-28T22:13:34.800672Z",
      "apogee_km": 630.063397073227,
      "perigee_km": 629.0161698547072,
      "latitude_deg": -3.669159574636042e-05,
      "longitude_deg": -89.24457043090094,
      "height_km": 630.2311289786547,
      "semi_major_axis_km": 7007.676783463967,
      "eccentricity": 7.472e-05,
      "inclination_deg": 51.9019,
      "raan_deg": 70.49,
      "arg_perigee_deg": 84.0068,
      "mean_anomaly_deg": 276.0979,
      "mean_motion_rev_day": 14.79931684
    },
    {
      "epoch": "2026-03-29T03:05:18.498912Z",
      "apogee_km": 630.0678237301818,
      "perigee_km": 628.9984532670469,
      "latitude_deg": -2.8719583527046426e-05,
      "longitude_deg": -163.2723211066948,
      "height_km": 630.2294102349878,
      "semi_major_axis_km": 7007.6701384986145,
      "eccentricity": 7.63e-05,
      "inclination_deg": 51.9017,
      "raan_deg": 69.594,
      "arg_perigee_deg": 84.6664,
      "mean_anomaly_deg": 275.4385,
      "mean_motion_rev_day": 14.79933789
    },
    {
      "epoch": "2026-03-30T05:01:11.263296Z",
      "apogee_km": 630.0767666760257,
      "perigee_km": 628.9315779556464,
      "latitude_deg": -5.778512674386457e-05,
      "longitude_deg": 161.91524370184192,
      "height_km": 630.2102458742837,
      "semi_major_axis_km": 7007.641172315836,
      "eccentricity": 8.171e-05,
      "inclination_deg": 51.9025,
      "raan_deg": 64.8164,
      "arg_perigee_deg": 86.0022,
      "mean_anomaly_deg": 274.1033,
      "mean_motion_rev_day": 14.79942965
    },
    {
      "epoch": "2026-03-30T14:44:38.981184Z",
      "apogee_km": 629.9785492556166,
      "perigee_km": 629.1125398467611,
      "latitude_deg": 4.595228980246405e-07,
      "longitude_deg": 13.8581328639346,
      "height_km": 630.2673162926511,
      "semi_major_axis_km": 7007.682544551189,
      "eccentricity": 6.179e-05,
      "inclination_deg": 51.9007,
      "raan_deg": 63.0241,
      "arg_perigee_deg": 86.7868,
      "mean_anomaly_deg": 273.3165,
      "mean_motion_rev_day": 14.79929859
    },
    {
      "epoch": "2026-03-30T21:13:37.364736Z",
      "apogee_km": 629.9564521844577,
      "perigee_km": 629.131928415608,
      "latitude_deg": -4.740621863904543e-05,
      "longitude_deg": -84.8458115495616,
      "height_km": 630.266327068772,
      "semi_major_axis_km": 7007.6811903000325,
      "eccentricity": 5.883e-05,
      "inclination_deg": 51.9006,
      "raan_deg": 61.8297,
      "arg_perigee_deg": 86.6711,
      "mean_anomaly_deg": 273.4318,
      "mean_motion_rev_day": 14.79930288
    },
    {
      "epoch": "2026-03-31T06:57:04.797504Z",
      "apogee_km": 630.0077568923089,
      "perigee_km": 629.0631226474279,
      "latitude_deg": -3.721274157527347e-05,
      "longitude_deg": 127.0985314694853,
      "height_km": 630.2601247015771,
      "semi_major_axis_km": 7007.672439769868,
      "eccentricity": 6.74e-05,
      "inclination_deg": 51.9017,
      "raan_deg": 60.0377,
      "arg_perigee_deg": 87.4033,
      "mean_anomaly_deg": 272.7006,
      "mean_motion_rev_day": 14.7993306
    },
    {
      "epoch": "2026-04-01T02:23:59.590464Z",
      "apogee_km": 629.9698913544134,
      "perigee_km": 629.0751533865969,
      "latitude_deg": -2.528989097523849e-05,
      "longitude_deg": -169.01198582759037,
      "height_km": 630.2401970126499,
      "semi_major_axis_km": 7007.659522370505,
      "eccentricity": 6.384e-05,
      "inclination_deg": 51.9015,
      "raan_deg": 56.4542,
      "arg_perigee_deg": 86.356,
      "mean_anomaly_deg": 273.7475,
      "mean_motion_rev_day": 14.79937152
    },
    {
      "epoch": "2026-04-02T14:03:20.820096Z",
      "apogee_km": 630.0436055566224,
      "perigee_km": 629.043329246706,
      "latitude_deg": 7.547400828912307e-05,
      "longitude_deg": 8.116101800803118,
      "height_km": 630.2093346399668,
      "semi_major_axis_km": 7007.680467401664,
      "eccentricity": 7.137e-05,
      "inclination_deg": 51.9037,
      "raan_deg": 49.885,
      "arg_perigee_deg": 80.7522,
      "mean_anomaly_deg": 279.3522,
      "mean_motion_rev_day": 14.79930517
    },
    {
      "epoch": "2026-04-03T14:21:59.090112Z",
      "apogee_km": 630.0597060586861,
      "perigee_km": 628.9188644994429,
      "latitude_deg": 3.0060291000403323e-05,
      "longitude_deg": -2.020193885927478,
      "height_km": 630.2312859661191,
      "semi_major_axis_km": 7007.626285279064,
      "eccentricity": 8.14e-05,
      "inclination_deg": 51.9032,
      "raan_deg": 45.4066,
      "arg_perigee_deg": 89.5925,
      "mean_anomaly_deg": 270.5131,
      "mean_motion_rev_day": 14.79947681
    },
    {
      "epoch": "2026-04-04T21:09:35.494848Z",
      "apogee_km": 630.0077365354964,
      "perigee_km": 629.0378764182797,
      "latitude_deg": 3.314458019288558e-05,
      "longitude_deg": -110.86002063151663,
      "height_km": 630.2472014010525,
      "semi_major_axis_km": 7007.659806476888,
      "eccentricity": 6.92e-05,
      "inclination_deg": 51.9055,
      "raan_deg": 39.7331,
      "arg_perigee_deg": 87.3925,
      "mean_anomaly_deg": 272.7117,
      "mean_motion_rev_day": 14.79937062
    },
    {
      "epoch": "2026-04-05T13:22:01.839072Z",
      "apogee_km": 630.0792571275142,
      "perigee_km": 629.040716434074,
      "latitude_deg": 5.0227897855471746e-05,
      "longitude_deg": 2.381713086967163,
      "height_km": 630.1514272495345,
      "semi_major_axis_km": 7007.696986780794,
      "eccentricity": 7.41e-05,
      "inclination_deg": 51.9048,
      "raan_deg": 36.7502,
      "arg_perigee_deg": 72.6421,
      "mean_anomaly_deg": 287.4623,
      "mean_motion_rev_day": 14.79925284
    },
    {
      "epoch": "2026-04-07T12:22:04.870560Z",
      "apogee_km": 630.0244288246513,
      "perigee_km": 629.0130839458898,
      "latitude_deg": -3.991421836367488e-07,
      "longitude_deg": 6.777081630983776,
      "height_km": 630.2802608821099,
      "semi_major_axis_km": 7007.65575638527,
      "eccentricity": 7.216e-05,
      "inclination_deg": 51.9038,
      "raan_deg": 28.0885,
      "arg_perigee_deg": 91.7297,
      "mean_anomaly_deg": 268.3748,
      "mean_motion_rev_day": 14.79938345
    },
    {
      "epoch": "2026-04-08T12:40:43.596768Z",
      "apogee_km": 630.463865145598,
      "perigee_km": 628.6389229340211,
      "latitude_deg": 5.3434425153887556e-05,
      "longitude_deg": -3.3619459684709883,
      "height_km": 630.2488237138284,
      "semi_major_axis_km": 7007.688394039809,
      "eccentricity": 0.00013021,
      "inclination_deg": 51.9029,
      "raan_deg": 23.6092,
      "arg_perigee_deg": 86.9882,
      "mean_anomaly_deg": 273.123,
      "mean_motion_rev_day": 14.79928006
    },
    {
      "epoch": "2026-04-09T11:22:07.671360Z",
      "apogee_km": 630.0676537351655,
      "perigee_km": 629.016642016566,
      "latitude_deg": -1.5734712654152266e-05,
      "longitude_deg": 11.176140422220717,
      "height_km": 630.3110124521186,
      "semi_major_axis_km": 7007.679147875865,
      "eccentricity": 7.499e-05,
      "inclination_deg": 51.9034,
      "raan_deg": 19.4295,
      "arg_perigee_deg": 92.476,
      "mean_anomaly_deg": 267.6288,
      "mean_motion_rev_day": 14.79930935
    }
  ]
}